{"type": "FeatureCollection", "features": [ {"type": "Feature", "properties": {"norad_id": 30530, "name": "FENGYUN 1C DEB", "group": "fengyun-1c-debris", "lat": 37.39988751952785, "lon": -134.60240761519705, "alt_km": 717.0859562252745, "timestamp": "2025-12-26T21:25:53.287308+00:00", "meta": {"OBJECT_NAME": "FENGYUN 1C DEB", "OBJECT_ID": "1999-025AJU", "EPOCH": "2025-12-26T14:47:30.506784", "MEAN_MOTION": 14.3680352, "ECCENTRICITY": 0.01004445, "INCLINATION": 98.395, "RA_OF_ASC_NODE": 38.645, "ARG_OF_PERICENTER": 95.7594, "MEAN_ANOMALY": 55.2803, "EPHEMERIS_TYPE": 0, "CLASSIFICATION_TYPE": "U", "NORAD_CAT_ID": 30530, "ELEMENT_SET_NO": 999, "REV_AT_EPOCH": 98984, "BSTAR": 0.00023644092, "MEAN_MOTION_DOT": 6.96e-06, "MEAN_MOTION_DDOT": 0}, "tle": {"line1": "1 30530U 99025AJU 25360.61632531  .00000696  00000+0  23644-3 0  9991", "line2": "2 30530  98.3950  38.6450 0100444  95.7594  55.2803 14.36803520989848"}}, "geometry": {"type": "Point", "coordinates": [-134.60240761519705, 37.39988751952785]}}, {"type": "Feature", "properties": {"norad_id": 30531, "name": "FENGYUN 1C DEB", "group": "fengyun-1c-debris", "lat": 33.563282259917514, "lon": -174.4294923184189, "alt_km": 695.5093186712511, "timestamp": "2025-12-26T21:25:53.287319+00:00", "meta": {"OBJECT_NAME": "FENGYUN 1C DEB", "OBJECT_ID": "1999-025AJV", "EPOCH": "2025-12-26T11:25:19.405920", "MEAN_MOTION": 14.62428214, "ECCENTRICITY": 0.00261754, "INCLINATION": 102.3108, "RA_OF_ASC_NODE": 193.2823, "ARG_OF_PERICENTER": 168.225, "MEAN_ANOMALY": 191.9553, "EPHEMERIS_TYPE": 0, "CLASSIFICATION_TYPE": "U", "NORAD_CAT_ID": 30531, "ELEMENT_SET_NO": 999, "REV_AT_EPOCH": 97896, "BSTAR": 0.0042223827, "MEAN_MOTION_DOT": 0.00021466, "MEAN_MOTION_DDOT": 0}, "tle": {"line1": "1 30531U 99025AJV 25360.47591905  .00021466  00000+0  42224-2 0  9997", "line2": "2 30531 102.3108 193.2823 0026175 168.2250 191.9553 14.62428214978968"}}, "geometry": {"type": "Point", "coordinates": [-174.4294923184189, 33.563282259917514]}}, {"type": "Feature", "properties": {"norad_id": 30532, "name": "FENGYUN 1C DEB", "group": "fengyun-1c-debris", "lat": 10.557978034087661, "lon": 43.94375159068757, "alt_km": 471.9239881353096, "timestamp": "2025-12-26T21:25:53.287329+00:00", "meta": {"OBJECT_NAME": "FENGYUN 1C DEB", "OBJECT_ID": "1999-025AJW", "EPOCH": "2025-12-26T08:52:27.335712", "MEAN_MOTION": 15.35440546, "ECCENTRICITY": 0.00186691, "INCLINATION": 96.9571, "RA_OF_ASC_NODE": 44.7536, "ARG_OF_PERICENTER": 211.3423, "MEAN_ANOMALY": 148.671, "EPHEMERIS_TYPE": 0, "CLASSIFICATION_TYPE": "U", "NORAD_CAT_ID": 30532, "ELEMENT_SET_NO": 999, "REV_AT_EPOCH": 97896, "BSTAR": 0.012854174, "MEAN_MOTION_DOT": 0.00472215, "MEAN_MOTION_DDOT": 0}, "tle": {"line1": "1 30532U 99025AJW 25360.36976083  .00472215  00000+0  12854-1 0  9997", "line2": "2 30532  96.9571  44.7536 0018669 211.3423 148.6710 15.35440546978960"}}, "geometry": {"type": "Point", "coordinates": [43.94375159068757, 10.557978034087661]}}, {"type": "Feature", "properties": {"norad_id": 30533, "name": "FENGYUN 1C DEB", "group": "fengyun-1c-debris", "lat": -49.17311474665837, "lon": 140.8538613726336, "alt_km": 771.5241819188268, "timestamp": "2025-12-26T21:25:53.287339+00:00", "meta": {"OBJECT_NAME": "FENGYUN 1C DEB", "OBJECT_ID": "1999-025AJX", "EPOCH": "2025-12-24T20:42:58.562784", "MEAN_MOTION": 14.54112525, "ECCENTRICITY": 0.00810279, "INCLINATION": 98.8337, "RA_OF_ASC_NODE": 128.3433, "ARG_OF_PERICENTER": 112.7899, "MEAN_ANOMALY": 18.0384, "EPHEMERIS_TYPE": 0, "CLASSIFICATION_TYPE": "U", "NORAD_CAT_ID": 30533, "ELEMENT_SET_NO": 999, "REV_AT_EPOCH": 97997, "BSTAR": 0.0030460631, "MEAN_MOTION_DOT": 0.00013416, "MEAN_MOTION_DDOT": 0}, "tle": {"line1": "1 30533U 99025AJX 25358.86317781  .00013416  00000+0  30461-2 0  9993", "line2": "2 30533  98.8337 128.3433 0081027 112.7899  18.0384 14.54112525979978"}}, "geometry": {"type": "Point", "coordinates": [140.8538613726336, -49.17311474665837]}}, {"type": "Feature", "properties": {"norad_id": 30539, "name": "FENGYUN 1C DEB", "group": "fengyun-1c-debris", "lat": 69.01659083660364, "lon": -173.69855728666622, "alt_km": 745.3768881227043, "timestamp": "2025-12-26T21:25:53.287349+00:00", "meta": {"OBJECT_NAME": "FENGYUN 1C DEB", "OBJECT_ID": "1999-025AKD", "EPOCH": "2025-12-26T09:22:22.661184", "MEAN_MOTION": 14.55479843, "ECCENTRICITY": 0.01154171, "INCLINATION": 98.8821, "RA_OF_ASC_NODE": 341.7048, "ARG_OF_PERICENTER": 233.9302, "MEAN_ANOMALY": 125.116, "EPHEMERIS_TYPE": 0, "CLASSIFICATION_TYPE": "U", "NORAD_CAT_ID": 30539, "ELEMENT_SET_NO": 999, "REV_AT_EPOCH": 99564, "BSTAR": 0.00057652409, "MEAN_MOTION_DOT": 2.686e-05, "MEAN_MOTION_DDOT": 0}, "tle": {"line1": "1 30539U 99025AKD 25360.39054006  .00002686  00000+0  57652-3 0  9997", "line2": "2 30539  98.8821 341.7048 0115417 233.9302 125.1160 14.55479843995645"}}, "geometry": {"type": "Point", "coordinates": [-173.69855728666622, 69.01659083660364]}}, {"type": "Feature", "properties": {"norad_id": 30540, "name": "FENGYUN 1C DEB", "group": "fengyun-1c-debris", "lat": -42.522134220192285, "lon": -78.66932098077157, "alt_km": 823.4207040126985, "timestamp": "2025-12-26T21:25:53.287359+00:00", "meta": {"OBJECT_NAME": "FENGYUN 1C DEB", "OBJECT_ID": "1999-025AKE", "EPOCH": "2025-12-26T13:45:44.229312", "MEAN_MOTION": 14.32407622, "ECCENTRICITY": 0.0050488, "INCLINATION": 98.8778, "RA_OF_ASC_NODE": 109.2444, "ARG_OF_PERICENTER": 20.5813, "MEAN_ANOMALY": 355.8442, "EPHEMERIS_TYPE": 0, "CLASSIFICATION_TYPE": "U", "NORAD_CAT_ID": 30540, "ELEMENT_SET_NO": 999, "REV_AT_EPOCH": 97484, "BSTAR": 0.0018731801, "MEAN_MOTION_DOT": 5.096e-05, "MEAN_MOTION_DDOT": 0}, "tle": {"line1": "1 30540U 99025AKE 25360.57342858  .00005096  00000+0  18732-2 0  9997", "line2": "2 30540  98.8778 109.2444 0050488  20.5813 355.8442 14.32407622974843"}}, "geometry": {"type": "Point", "coordinates": [-78.66932098077157, -42.522134220192285]}}, {"type": "Feature", "properties": {"norad_id": 30541, "name": "FENGYUN 1C DEB", "group": "fengyun-1c-debris", "lat": 34.44740015101426, "lon": -126.7196772876854, "alt_km": 814.6305014236532, "timestamp": "2025-12-26T21:25:53.287370+00:00", "meta": {"OBJECT_NAME": "FENGYUN 1C DEB", "OBJECT_ID": "1999-025AKF", "EPOCH": "2025-12-26T14:00:15.843744", "MEAN_MOTION": 14.23118658, "ECCENTRICITY": 0.00174469, "INCLINATION": 98.6933, "RA_OF_ASC_NODE": 46.9507, "ARG_OF_PERICENTER": 46.1652, "MEAN_ANOMALY": 314.0965, "EPHEMERIS_TYPE": 0, "CLASSIFICATION_TYPE": "U", "NORAD_CAT_ID": 30541, "ELEMENT_SET_NO": 999, "REV_AT_EPOCH": 97524, "BSTAR": 0.0011198099, "MEAN_MOTION_DOT": 2.488e-05, "MEAN_MOTION_DDOT": 0}, "tle": {"line1": "1 30541U 99025AKF 25360.58351671  .00002488  00000+0  11198-2 0  9993", "line2": "2 30541  98.6933  46.9507 0017446  46.1652 314.0965 14.23118658975244"}}, "geometry": {"type": "Point", "coordinates": [-126.7196772876854, 34.44740015101426]}}, {"type": "Feature", "properties": {"norad_id": 30542, "name": "FENGYUN 1C DEB", "group": "fengyun-1c-debris", "lat": -80.9309868232477, "lon": 104.90444908712298, "alt_km": 858.7462871298203, "timestamp": "2025-12-26T21:25:53.287380+00:00", "meta": {"OBJECT_NAME": "FENGYUN 1C DEB", "OBJECT_ID": "1999-025AKG", "EPOCH": "2025-12-26T08:17:25.283328", "MEAN_MOTION": 14.06981336, "ECCENTRICITY": 0.00270564, "INCLINATION": 98.7857, "RA_OF_ASC_NODE": 28.7071, "ARG_OF_PERICENTER": 294.9217, "MEAN_ANOMALY": 85.5766, "EPHEMERIS_TYPE": 0, "CLASSIFICATION_TYPE": "U", "NORAD_CAT_ID": 30542, "ELEMENT_SET_NO": 999, "REV_AT_EPOCH": 97110, "BSTAR": 8.3183973e-05, "MEAN_MOTION_DOT": 9.6e-07, "MEAN_MOTION_DDOT": 0}, "tle": {"line1": "1 30542U 99025AKG 25360.34543152  .00000096  00000+0  83184-4 0  9994", "line2": "2 30542  98.7857  28.7071 0027056 294.9217  85.5766 14.06981336971105"}}, "geometry": {"type": "Point", "coordinates": [104.90444908712298, -80.9309868232477]}}, {"type": "Feature", "properties": {"norad_id": 30543, "name": "FENGYUN 1C DEB", "group": "fengyun-1c-debris", "lat": -3.7369925363253915, "lon": -170.52443997957775, "alt_km": 935.7988171815841, "timestamp": "2025-12-26T21:25:53.287390+00:00", "meta": {"OBJECT_NAME": "FENGYUN 1C DEB", "OBJECT_ID": "1999-025AKH", "EPOCH": "2025-12-26T00:17:27.462624", "MEAN_MOTION": 14.03751797, "ECCENTRICITY": 0.00720507, "INCLINATION": 98.8328, "RA_OF_ASC_NODE": 9.2017, "ARG_OF_PERICENTER": 356.7668, "MEAN_ANOMALY": 58.0904, "EPHEMERIS_TYPE": 0, "CLASSIFICATION_TYPE": "U", "NORAD_CAT_ID": 30543, "ELEMENT_SET_NO": 999, "REV_AT_EPOCH": 96691, "BSTAR": 0.00013342818, "MEAN_MOTION_DOT": 1.72e-06, "MEAN_MOTION_DDOT": 0}, "tle": {"line1": "1 30543U 99025AKH 25360.01212341  .00000172  00000+0  13343-3 0  9996", "line2": "2 30543  98.8328   9.2017 0072050 356.7668  58.0904 14.03751797966910"}}, "geometry": {"type": "Point", "coordinates": [-170.52443997957775, -3.7369925363253915]}}, {"type": "Feature", "properties": {"norad_id": 30545, "name": "FENGYUN 1C DEB", "group": "fengyun-1c-debris", "lat": -78.9880959966569, "lon": -23.36288659314611, "alt_km": 1069.543461228286, "timestamp": "2025-12-26T21:25:53.287423+00:00", "meta": {"OBJECT_NAME": "FENGYUN 1C DEB", "OBJECT_ID": "1999-025AKK", "EPOCH": "2025-12-25T13:09:34.122240", "MEAN_MOTION": 13.20792989, "ECCENTRICITY": 0.0472559, "INCLINATION": 98.9978, "RA_OF_ASC_NODE": 209.9845, "ARG_OF_PERICENTER": 339.9155, "MEAN_ANOMALY": 18.3905, "EPHEMERIS_TYPE": 0, "CLASSIFICATION_TYPE": "U", "NORAD_CAT_ID": 30545, "ELEMENT_SET_NO": 999, "REV_AT_EPOCH": 91099, "BSTAR": 0.0005625, "MEAN_MOTION_DOT": 3.74e-06, "MEAN_MOTION_DDOT": 0}, "tle": {"line1": "1 30545U 99025AKK 25359.54831160  .00000374  00000+0  56250-3 0  9998", "line2": "2 30545  98.9978 209.9845 0472559 339.9155  18.3905 13.20792989910997"}}, "geometry": {"type": "Point", "coordinates": [-23.36288659314611, -78.9880959966569]}}]}